[
    {
        "Altitude(m)": 558893.8634389018,
        "Argument of Periapsis(deg)": 0.006622991110713501,
        "Eccentricity": 0.0,
        "Inclination(deg)": 53.0,
        "Latitude(deg)": 48.73690584002549,
        "Longitude(deg)": 170.55936019748822,
        "Mean Anomaly(deg)": 110.09159286757756,
        "RAAN(deg)": 149.99014336852804,
        "Satellite Name": "Starlink Shell 1 666",
        "Satellite Number": 666,
        "Semi-Major Axis(m)": 6931778.249405717,
        "Time(s)": 190
    },
    {
        "Altitude(m)": 558833.542253951,
        "Argument of Periapsis(deg)": 0.0069715695902247375,
        "Eccentricity": 0.0,
        "Inclination(deg)": 53.0,
        "Latitude(deg)": 48.47310996902441,
        "Longitude(deg)": 171.37602249491755,
        "Mean Anomaly(deg)": 110.71842407113431,
        "RAAN(deg)": 149.98962459845055,
        "Satellite Name": "Starlink Shell 1 666",
        "Satellite Number": 666,
        "Semi-Major Axis(m)": 6931778.249405717,
        "Time(s)": 200
    },
    {
        "Altitude(m)": 558771.799722472,
        "Argument of Periapsis(deg)": 0.007320148069735974,
        "Eccentricity": 0.0,
        "Inclination(deg)": 53.0,
        "Latitude(deg)": 48.202974990876015,
        "Longitude(deg)": 172.1837382594312,
        "Mean Anomaly(deg)": 111.34525527469103,
        "RAAN(deg)": 149.98910582837308,
        "Satellite Name": "Starlink Shell 1 666",
        "Satellite Number": 666,
        "Semi-Major Axis(m)": 6931778.249405717,
        "Time(s)": 210
    },
    {
        "Altitude(m)": 558708.6737491031,
        "Argument of Periapsis(deg)": 0.007668726549247212,
        "Eccentricity": 0.0,
        "Inclination(deg)": 53.0,
        "Latitude(deg)": 47.926625367495866,
        "Longitude(deg)": 172.98247905789225,
        "Mean Anomaly(deg)": 111.9720864782477,
        "RAAN(deg)": 149.98858705829562,
        "Satellite Name": "Starlink Shell 1 666",
        "Satellite Number": 666,
        "Semi-Major Axis(m)": 6931778.249405717,
        "Time(s)": 220
    },
    {
        "Altitude(m)": 558644.2031430238,
        "Argument of Periapsis(deg)": 0.00801730502875845,
        "Eccentricity": 0.0,
        "Inclination(deg)": 53.0,
        "Latitude(deg)": 47.644185185145055,
        "Longitude(deg)": 173.77222825117744,
        "Mean Anomaly(deg)": 112.59891768180445,
        "RAAN(deg)": 149.98806828821813,
        "Satellite Name": "Starlink Shell 1 666",
        "Satellite Number": 666,
        "Semi-Major Axis(m)": 6931778.249405717,
        "Time(s)": 230
    },
    {
        "Altitude(m)": 558578.4275987375,
        "Argument of Periapsis(deg)": 0.008365883508269684,
        "Eccentricity": 0.0,
        "Inclination(deg)": 53.0,
        "Latitude(deg)": 47.355777990194916,
        "Longitude(deg)": 174.5529809469061,
        "Mean Anomaly(deg)": 113.22574888536111,
        "RAAN(deg)": 149.98754951814067,
        "Satellite Name": "Starlink Shell 1 666",
        "Satellite Number": 666,
        "Semi-Major Axis(m)": 6931778.249405717,
        "Time(s)": 240
    },
    {
        "Altitude(m)": 558511.3876764488,
        "Argument of Periapsis(deg)": 0.008714461987780921,
        "Eccentricity": 0.0,
        "Inclination(deg)": 53.0,
        "Latitude(deg)": 47.06152663609468,
        "Longitude(deg)": 175.32474243376285,
        "Mean Anomaly(deg)": 113.85258008891789,
        "RAAN(deg)": 149.9870307480632,
        "Satellite Name": "Starlink Shell 1 666",
        "Satellite Number": 666,
        "Semi-Major Axis(m)": 6931778.249405717,
        "Time(s)": 250
    },
    {
        "Altitude(m)": 558443.1247819774,
        "Argument of Periapsis(deg)": 0.009063040467292158,
        "Eccentricity": 0.0,
        "Inclination(deg)": 53.0,
        "Latitude(deg)": 46.76155314141164,
        "Longitude(deg)": 176.08752812662695,
        "Mean Anomaly(deg)": 114.4794112924746,
        "RAAN(deg)": 149.9865119779857,
        "Satellite Name": "Starlink Shell 1 666",
        "Satellite Number": 666,
        "Semi-Major Axis(m)": 6931778.249405717,
        "Time(s)": 260
    },
    {
        "Altitude(m)": 558373.6811462261,
        "Argument of Periapsis(deg)": 0.009411618946803396,
        "Eccentricity": 0.0,
        "Inclination(deg)": 53.0,
        "Latitude(deg)": 46.45597855876129,
        "Longitude(deg)": 176.8413635128031,
        "Mean Anomaly(deg)": 115.1062424960313,
        "RAAN(deg)": 149.98599320790825,
        "Satellite Name": "Starlink Shell 1 666",
        "Satellite Number": 666,
        "Semi-Major Axis(m)": 6931778.249405717,
        "Time(s)": 270
    },
    {
        "Altitude(m)": 558303.0998042268,
        "Argument of Periapsis(deg)": 0.009760197426314633,
        "Eccentricity": 0.0,
        "Inclination(deg)": 53.0,
        "Latitude(deg)": 46.144922854395766,
        "Longitude(deg)": 177.5862825893488,
        "Mean Anomaly(deg)": 115.73307369958803,
        "RAAN(deg)": 149.9854744378308,
        "Satellite Name": "Starlink Shell 1 666",
        "Satellite Number": 666,
        "Semi-Major Axis(m)": 6931778.249405717,
        "Time(s)": 280
    },
    {
        "Altitude(m)": 558231.424573783,
        "Argument of Periapsis(deg)": 0.01010877590582587,
        "Eccentricity": 0.0,
        "Inclination(deg)": 53.0,
        "Latitude(deg)": 45.828504798163294,
        "Longitude(deg)": 178.32232781982546,
        "Mean Anomaly(deg)": 116.35990490314472,
        "RAAN(deg)": 149.9849556677533,
        "Satellite Name": "Starlink Shell 1 666",
        "Satellite Number": 666,
        "Semi-Major Axis(m)": 6931778.249405717,
        "Time(s)": 290
    },
    {
        "Altitude(m)": 558158.7000336761,
        "Argument of Periapsis(deg)": 0.010457354385337106,
        "Eccentricity": 0.0,
        "Inclination(deg)": 53.0,
        "Latitude(deg)": 45.506841863524166,
        "Longitude(deg)": 179.04955009988544,
        "Mean Anomaly(deg)": 116.98673610670144,
        "RAAN(deg)": 149.9844368976758,
        "Satellite Name": "Starlink Shell 1 666",
        "Satellite Number": 666,
        "Semi-Major Axis(m)": 6931778.249405717,
        "Time(s)": 300
    },
    {
        "Altitude(m)": 558084.971501478,
        "Argument of Periapsis(deg)": 0.010805932864848343,
        "Eccentricity": 0.0,
        "Inclination(deg)": 53.0,
        "Latitude(deg)": 45.18005013727512,
        "Longitude(deg)": 179.7680072208343,
        "Mean Anomaly(deg)": 117.61356731025818,
        "RAAN(deg)": 149.98391812759837,
        "Satellite Name": "Starlink Shell 1 666",
        "Satellite Number": 666,
        "Semi-Major Axis(m)": 6931778.249405717,
        "Time(s)": 310
    },
    {
        "Altitude(m)": 558010.2850109973,
        "Argument of Periapsis(deg)": 0.01115451134435958,
        "Eccentricity": 0.0,
        "Inclination(deg)": 53.0,
        "Latitude(deg)": 44.84824423860261,
        "Longitude(deg)": -179.52223614134465,
        "Mean Anomaly(deg)": 118.24039851381482,
        "RAAN(deg)": 149.98339935752088,
        "Satellite Name": "Starlink Shell 1 666",
        "Satellite Number": 666,
        "Semi-Major Axis(m)": 6931778.249405717,
        "Time(s)": 320
    },
    {
        "Altitude(m)": 557934.6872893102,
        "Argument of Periapsis(deg)": 0.011503089823870818,
        "Eccentricity": 0.0,
        "Inclination(deg)": 53.0,
        "Latitude(deg)": 44.51153724707131,
        "Longitude(deg)": -178.82110842288506,
        "Mean Anomaly(deg)": 118.86722971737159,
        "RAAN(deg)": 149.98288058744342,
        "Satellite Name": "Starlink Shell 1 666",
        "Satellite Number": 666,
        "Semi-Major Axis(m)": 6931778.249405717,
        "Time(s)": 330
    },
    {
        "Altitude(m)": 557858.2257334511,
        "Argument of Periapsis(deg)": 0.011851668303382053,
        "Eccentricity": 0.0,
        "Inclination(deg)": 53.0,
        "Latitude(deg)": 44.170040639141476,
        "Longitude(deg)": -178.1285326666801,
        "Mean Anomaly(deg)": 119.49406092092829,
        "RAAN(deg)": 149.98236181736593,
        "Satellite Name": "Starlink Shell 1 666",
        "Satellite Number": 666,
        "Semi-Major Axis(m)": 6931778.249405717,
        "Time(s)": 340
    },
    {
        "Altitude(m)": 557780.9483867027,
        "Argument of Periapsis(deg)": 0.012200246782893292,
        "Eccentricity": 0.0,
        "Inclination(deg)": 53.0,
        "Latitude(deg)": 43.823864232789475,
        "Longitude(deg)": -177.44442648749788,
        "Mean Anomaly(deg)": 120.12089212448501,
        "RAAN(deg)": 149.98184304728846,
        "Satellite Name": "Starlink Shell 1 666",
        "Satellite Number": 666,
        "Semi-Major Axis(m)": 6931778.249405717,
        "Time(s)": 350
    },
    {
        "Altitude(m)": 557702.9039146074,
        "Argument of Periapsis(deg)": 0.012548825262404526,
        "Eccentricity": 0.0,
        "Inclination(deg)": 53.0,
        "Latitude(deg)": 43.47311613980732,
        "Longitude(deg)": -176.76870202002908,
        "Mean Anomaly(deg)": 120.74772332804177,
        "RAAN(deg)": 149.98132427721097,
        "Satellite Name": "Starlink Shell 1 666",
        "Satellite Number": 666,
        "Semi-Major Axis(m)": 6931778.249405717,
        "Time(s)": 360
    },
    {
        "Altitude(m)": 557624.1415805509,
        "Argument of Periapsis(deg)": 0.012897403741915765,
        "Eccentricity": 0.0,
        "Inclination(deg)": 53.0,
        "Latitude(deg)": 43.11790272535769,
        "Longitude(deg)": -176.10126736201656,
        "Mean Anomaly(deg)": 121.3745545315984,
        "RAAN(deg)": 149.98080550713354,
        "Satellite Name": "Starlink Shell 1 666",
        "Satellite Number": 666,
        "Semi-Major Axis(m)": 6931778.249405717,
        "Time(s)": 370
    }
]